DTUSAT                  
1 27842U 03031C   09129.59094963  .00000021  00000-0  29763-4 0  5514
2 27842  98.7062 140.2812 0008520 233.9810 126.0573 14.20977821303861
CUTE-1 (CO-55)          
1 27844U 03031E   09129.04404900  .00000077  00000-0  56018-4 0  5741
2 27844  98.7142 138.7639 0008805 256.3554 103.6650 14.20636098303709
QUAKESAT                
1 27845U 03031F   09129.61756406  .00000075  00000-0  55704-4 0  5497
2 27845  98.7199 138.7325 0008059 274.8902  85.1358 14.20266560303697
AAU CUBESAT             
1 27846U 03031G   09129.59056784 -.00000009  00000-0  15864-4 0  4857
2 27846  98.7062 140.2750 0008602 233.1750 126.8622 14.20977516303866
CANX-1                  
1 27847U 03031H   09128.54244189  .00000032  00000-0  35022-4 0  4998
2 27847  98.7067 139.2344 0008495 237.3316 122.7051 14.20960722303663
CUBESAT XI-IV (CO-57)   
1 27848U 03031J   09128.52304463  .00000021  00000-0  30083-4 0  5204
2 27848  98.7154 137.3112 0008887 263.9446  96.0713 14.20437877303597
UWE-1                   
1 28892U 05043C   09129.23925004  .00000073  00000-0  24787-4 0  3319
2 28892  98.0612  20.4259 0018353 108.3802 251.9376 14.59731205188165
CUBESAT XI-V (CO-58)    
1 28895U 05043F   09129.40477422  .00000148  00000-0  40497-4 0  2977
2 28895  98.0663  21.0985 0019225 108.6586 251.6699 14.59764872188079
NCUBE-2                 
1 28897U 05043H   09130.15283713  .00000082  00000-0  26574-4 0  8446
2 28897  98.0617  21.7369 0018264 106.4991 253.8245 14.59942298180478
CUTE-1.7+APD (CO-56)    
1 28941U 06005C   09130.02054874  .00048551  34455-5  19134-3 0   630
2 28941  98.1366 297.4349 0095237 275.3612  83.6756 15.80147863181210
GENESAT-1               
1 29655U 06058C   09130.15925641  .00013306  00000-0  13523-3 0  7057
2 29655  40.0246  61.4668 0001861 249.8548 110.2069 15.64801567136510
CSTB1                   
1 31122U 07012F   09129.15674666  .00000553  00000-0  13192-3 0  6293
2 31122  97.9966 187.8864 0085971  36.3044 324.3930 14.55237807109487
MAST                    
1 31126U 07012K   09129.20875863 -.00000006  00000-0  90363-5 0  5903
2 31126  97.9916 185.7909 0095667  41.2849 319.5510 14.53493502109376
LIBERTAD-1              
1 31128U 07012M   09129.70013376 -.00000046  00000-0  00000+0 0  6259
2 31128  97.9908 184.5145 0103753  44.9749 315.9798 14.52038910109312
POLYSAT CP3             
1 31129U 07012N   09130.13686404  .00000134  00000-0  41383-4 0  9127
2 31129  97.9927 185.0306 0103659  43.6248 317.3100 14.52128500109367
CAPE1                   
1 31130U 07012P   09129.14015232  .00000163  00000-0  48294-4 0  5950
2 31130  97.9948 183.9999 0103734  46.9078 314.0734 14.52055106109029
POLYSAT CP4             
1 31132U 07012Q   09130.19109662 -.00000146  00000-0 -21855-4 0  6015
2 31132  97.9973 188.8001 0086490  32.3456 328.3004 14.55201915109500
NTS (CANX-6)            
1 32784U 08021B   09129.87040275  .00000045  00000-0  12699-4 0  3634
2 32784  97.9478 193.9745 0016721 147.2230 213.0028 14.81039647 55755
CUTE-1.7+APD II         
1 32785U 08021C   09129.89684201  .00000265  00000-0  40599-4 0  3601
2 32785  97.9472 194.1734 0015527 151.5602 208.6451 14.81477640 55776
COMPASS-1               
1 32787U 08021E   09130.21443887  .00000457  00000-0  64793-4 0  3520
2 32787  97.9446 194.3548 0016526 152.2096 207.9998 14.81593151 55829
AAUSAT-II               
1 32788U 08021F   09130.11792791  .00000297  00000-0  44418-4 0  3536
2 32788  97.9447 194.3118 0016202 152.7894 207.4175 14.81714967 55817
DELFI-C3                
1 32789U 08021G   09129.73389039  .00000349  00000-0  51012-4 0  3626
2 32789  97.9502 194.0693 0016278 152.7549 207.4517 14.81686590 55758
CANX-2                  
1 32790U 08021H   09129.83153150  .00000193  00000-0  31360-4 0  3476
2 32790  97.9475 194.0836 0016153 152.5338 207.6726 14.81464694 55746
SEEDS II                
1 32791U 08021J   09129.71258923 -.00000041  00000-0  15593-5 0  3449
2 32791  97.9475 193.8888 0016568 151.4665 208.7455 14.81424079 55713
PSLV DEB                
1 32797U 08021L   09124.15288384  .00002115  00000-0  26659-3 0  1592
2 32797  97.9749 189.4621 0015238 164.9664 195.0234 14.82967991 53638
